[{"OBJECT_NAME":"STARLINK-30198","OBJECT_ID":"2023-096A","EPOCH":"2026-03-09T22:00:01.999584","MEAN_MOTION":15.15672992,"ECCENTRICITY":0.00017382,"INCLINATION":42.9995,"RA_OF_ASC_NODE":221.4881,"ARG_OF_PERICENTER":295.0997,"MEAN_ANOMALY":179.6566,"EPHEMERIS_TYPE":0,"CLASSIFICATION_TYPE":"U","NORAD_CAT_ID":57290,"ELEMENT_SET_NO":999,"REV_AT_EPOCH":567,"BSTAR":0.0050728772,"MEAN_MOTION_DOT":0.00099438,"MEAN_MOTION_DDOT":0},{"OBJECT_NAME":"YAOGAN-39 04B","OBJECT_ID":"2023-163C","EPOCH":"2026-03-09T21:42:05.108256","MEAN_MOTION":15.16740453,"ECCENTRICITY":0.00026845,"INCLINATION":34.9928,"RA_OF_ASC_NODE":267.8227,"ARG_OF_PERICENTER":59.5267,"MEAN_ANOMALY":300.571,"EPHEMERIS_TYPE":0,"CLASSIFICATION_TYPE":"U","NORAD_CAT_ID":58143,"ELEMENT_SET_NO":999,"REV_AT_EPOCH":13222,"BSTAR":0.00037765963,"MEAN_MOTION_DOT":7.552e-5,"MEAN_MOTION_DDOT":0}]
